STARLINK-3003           
1 48879U 21059A   22275.91667824 -.00015580  00000+0 -11602-2 0  9996
2 48879  97.5120  43.2631 0001498 110.1966 204.0389 15.02895142 70658
STARLINK-3004           
1 48880U 21059B   22275.91667824 -.00015642  00000+0 -11648-2 0  9997
2 48880  97.5116  43.2666 0001723 107.3624 216.1545 15.02894607 70656
STARLINK-3005           
1 48881U 21059C   22276.25001157  .00074271  00000+0  54894-2 0  9998
2 48881  97.5127  43.6190 0001473  97.3771 251.4978 15.02868142 70701
SPACEBEENZ-10           
1 48882U 21059D   22276.11228466  .00035086  00000+0  16038-2 0  9997
2 48882  97.5647  45.9567 0008029  94.1006 266.1146 15.20441443 70297
SPACEBEE-100            
1 48883U 21059E   22275.81986987  .00016980  00000+0  84733-3 0  9993
2 48883  97.5677  45.0415 0009395  92.4907 267.7402 15.17541609 70206
SPACEBEE-101            
1 48884U 21059F   22275.83676916  .00017562  00000+0  88090-3 0  9991
2 48884  97.5681  45.0277 0008975  95.8740 264.3516 15.17357238 70205
LEMUR-2-JACKSON         
1 48885U 21059G   22275.86364186  .00020131  00000+0  97368-3 0  9992
2 48885  97.5656  45.3832 0008430  91.8695 268.3505 15.18602907 70231
SPACEBEE-102            
1 48886U 21059H   22276.15330602  .00013464  00000+0  67516-3 0  9995
2 48886  97.5686  45.3747 0008919  93.7429 266.4824 15.17429263 70254
SPACEBEENZ-9            
1 48887U 21059J   22275.85018135  .00030308  00000+0  13876-2 0  9991
2 48887  97.5644  45.6865 0008060  95.0181 265.1974 15.20419924 70259
SPACEBEE-103            
1 48888U 21059K   22275.85029319  .00017924  00000+0  89030-3 0  9993
2 48888  97.5680  45.1696 0009171  93.1455 267.0828 15.17693503 70212
SPACEBEENZ-7            
1 48889U 21059L   22275.34648187  .00022348  00000+0  10203-2 0  9999
2 48889  97.5664  45.4032 0008693  96.5101 263.7124 15.20577065 70181
SPACEBEE-104            
1 48890U 21059M   22275.81177417  .00017471  00000+0  86614-3 0  9997
2 48890  97.5678  45.0358 0009193  95.7099 264.5183 15.17766800 70208
SPACEBEENZ-8            
1 48891U 21059N   22275.35338674  .00022300  00000+0  10213-2 0  9999
2 48891  97.5670  45.3946 0008854  96.3176 263.9067 15.20468823 70182
TYVAK-0173              
1 48892U 21059P   22275.61498505  .00001345  00000+0  21154-3 0  9992
2 48892  95.9967 316.2770 0008925 272.3182  87.7009 14.73491587 68377
SPACEBEE-106            
1 48893U 21059Q   22275.85020423  .00017729  00000+0  88415-3 0  9995
2 48893  97.5698  45.2813 0009628  95.2485 264.9847 15.17552574 70211
SPACEBEE-107            
1 48894U 21059R   22275.86543658  .00018507  00000+0  90857-3 0  9995
2 48894  97.5704  45.4204 0009418  94.1564 266.0746 15.18093421 70223
SPACEBEE-108            
1 48895U 21059S   22275.84741755  .00017797  00000+0  88785-3 0  9999
2 48895  97.5693  45.2631 0009716  94.6066 265.6277 15.17539567 70214
SPACEBEE-105            
1 48896U 21059T   22276.09643436  .00021163  00000+0  10502-2 0  9998
2 48896  97.5676  45.2696 0009249  85.8649 274.3641 15.17690200 70244
SPACEBEE-109            
1 48897U 21059U   22275.81543299  .00018043  00000+0  89026-3 0  9995
2 48897  97.5700  45.3015 0009878  93.6440 266.5923 15.17920343 70210
CENTAURI-4 (TYVAK-0211) 
1 48898U 21059V   22275.85119665  .00017769  00000+0  87653-3 0  9994
2 48898  97.5668  45.3176 0010572  95.9440 264.2999 15.17926135 70224
SPACEBEE-110            
1 48899U 21059W   22275.81187465  .00017711  00000+0  86657-3 0  9994
2 48899  97.5705  45.4929 0010015  91.4241 268.8140 15.18216746 70225
TUBIN                   
1 48900U 21059X   22276.22348561  .00004988  00000+0  27318-3 0  9990
2 48900  97.5684  44.7961 0011415  92.9143  25.6523 15.14630392 70221
TROPICS PATHFINDER      
1 48901U 21059Y   22275.59057240  .00011103  00000+0  57300-3 0  9992
2 48901  97.5589  44.2469 0010909  93.2742 266.9739 15.16450088 70166
LINCS1                  
1 48902U 21059Z   22275.83438404  .00009526  00000+0  50681-3 0  9996
2 48902  97.5701  44.7560 0011735  94.5384 265.7189 15.15407514 70187
LINCS2                  
1 48903U 21059AA  22275.84595296  .00007950  00000+0  42682-3 0  9992
2 48903  97.5626  44.3005 0011319  90.3846 269.8683 15.15146691 70189
SPACEBEE-111            
1 48904U 21059AB  22275.86066882  .00019027  00000+0  91912-3 0  9997
2 48904  97.5710  45.7737 0010757  91.2837 268.9629 15.18639109 70247
NUSAT-19 (ROSALIND)     
1 48905U 21059AC  22276.25165987  .00008693  00000+0  40008-3 0  9995
2 48905  97.5224  45.5534 0010915  62.5408 359.2013 15.20512527 70442
UMBRA-2001              
1 48906U 21059AD  22275.82148676  .00025793  00000+0  15275-2 0  9991
2 48906  97.5540  42.2067 0004051 346.6287  13.4835 15.11380870 70056
MANDRAKE 2 ABLE         
1 48907U 21059AE  22275.82003950  .00005193  00000+0  28511-3 0  9997
2 48907  97.5687  44.4958 0012124  90.6921 269.5700 15.14510467 70171
MANDRAKE 2 BAKER        
1 48908U 21059AF  22275.81999774  .00005239  00000+0  28810-3 0  9998
2 48908  97.5696  44.5141 0011409  88.1893 272.0646 15.14455044 70179
PACE-1                  
1 48909U 21059AG  22275.61187599  .00005381  00000+0  29417-3 0  9993
2 48909  97.5606  43.8474 0012105  87.2508 273.0109 15.14645641 70145
GNOMES-2                
1 48910U 21059AH  22275.80858485  .00015647  00000+0  77844-3 0  9998
2 48910  97.5683  45.3895 0011966  87.6744 272.5859 15.17642965 70220
YAM-2                   
1 48911U 21059AJ  22275.84009891  .00008729  00000+0  46337-3 0  9998
2 48911  97.5708  44.9334 0012251  88.3515 271.9121 15.15506386 70199
ION SCV-003             
1 48912U 21059AK  22275.86871860  .00006727  00000+0  28146-3 0  9998
2 48912  97.5423  43.7365 0026387  58.3877 301.9929 15.23592173 70152
CAPELLA-5-WHITNEY       
1 48913U 21059AL  22275.93758626  .00045674  00000+0  16314-2 0  9998
2 48913  97.5536  47.9134 0006858  77.2603 282.9402 15.28677519 70434
ICEYE-X12               
1 48914U 21059AM  22276.12303426  .00007022  00000+0  42931-3 0  9995
2 48914  97.5683  43.2230 0001731  60.0594 112.7514 15.10560136 70103
YAM-3                   
1 48915U 21059AN  22275.84067385  .00005774  00000+0  31561-3 0  9994
2 48915  97.5669  44.5378 0012761  83.7639 276.5046 15.14616675 70183
ICEYE-X13               
1 48916U 21059AP  22276.23486207  .00007442  00000+0  44843-3 0  9998
2 48916  97.5696  43.5467 0002309  78.6204  37.5186 15.11067544 70137
ICEYE-X15               
1 48917U 21059AQ  22276.15397167  .00008606  00000+0  43815-3 0  9997
2 48917  97.5683  45.7451 0012671  81.9058  42.7711 15.16984110 70277
ICEYE-X11               
1 48918U 21059AR  22276.14365501  .00008156  00000+0  41951-3 0  9993
2 48918  97.5677  45.5832 0013048  82.6566  90.6810 15.16636113 70261
NUSAT-22 (SOFYA)        
1 48919U 21059AS  22276.19140340  .00016079  00000+0  49718-3 0  9993
2 48919  97.3691  47.7798 0013599  17.5503 103.7936 15.33495452 71062
NUSAT-21 (ELISA)        
1 48920U 21059AT  22276.12393730  .00018846  00000+0  52054-3 0  9992
2 48920  97.3641  47.4193 0012830  26.0562 147.0535 15.37023088 71075
NUSAT-20 (GRACE)        
1 48921U 21059AU  22276.08860637  .00017910  00000+0  51844-3 0  9990
2 48921  97.3758  47.8293 0016032  44.0408  71.0723 15.35520671 71058
D2/ATLACOM-1            
1 48922U 21059AV  22276.13556558  .00010157  00000+0  51324-3 0  9990
2 48922  97.5605  45.3322 0013410  78.2390  94.0767 15.17189888 70271
LEMUR-2-ANNABANANA      
1 48923U 21059AW  22275.86632353  .00021932  00000+0  10144-2 0  9995
2 48923  97.5593  45.7904 0011523  80.2433 280.0102 15.20107285 70288
FARADAY_PHOENIX         
1 48924U 21059AX  22276.09294214  .00004521  00000+0  23968-3 0  9996
2 48924  97.5709  45.5810 0019217  84.9785  29.3436 15.15737342 70259
LEMUR-2-JOHN-TREIRES    
1 48925U 21059AY  22275.83861656  .00023317  00000+0  10511-2 0  9991
2 48925  97.5668  46.4250 0013863  82.4963 277.7846 15.20951899 70305
KSF1-B                  
1 48926U 21059AZ  22276.14161200  .00020096  00000+0  90827-3 0  9995
2 48926  97.5686  46.8151 0015524  78.7571  45.9353 15.20870848 70345
LEMUR-2-AC-CUBED        
1 48927U 21059BA  22275.80354211  .00019042  00000+0  87986-3 0  9995
2 48927  97.5645  46.1810 0016351  85.2325 275.0776 15.20111106 70299
PAINANI-2               
1 48928U 21059BB  22275.82873558  .00011025  00000+0  55322-3 0  9990
2 48928  97.5713  45.9176 0015753  86.8271 273.4764 15.17381285 70258
LEMUR-2-MERIMA          
1 48929U 21059BC  22275.83357351  .00020949  00000+0  94624-3 0  9993
2 48929  97.5601  46.2903 0015935  85.2980 275.0075 15.20876806 70311
KSF1-A                  
1 48930U 21059BD  22276.13613516  .00019477  00000+0  87466-3 0  9997
2 48930  97.5615  46.5448 0014403  82.8319  37.9634 15.21113028 70354
HAWK-3B                 
1 48931U 21059BE  22275.85147058  .00006097  00000+0  31738-3 0  9994
2 48931  97.5540  44.7619 0016850  94.8642 265.4515 15.16269682 70248
SPACEBEE-92             
1 48932U 21059BF  22275.93703466  .00066758  00000+0  22576-2 0  9994
2 48932  97.5541  48.5427 0012097  81.8759 278.3853 15.30307057 70471
SPACEBEE-89             
1 48933U 21059BG  22275.95400276  .00075718  00000+0  24513-2 0  9999
2 48933  97.5536  48.8045 0011563  80.4384 279.8163 15.31680478 70495
SPACEBEE-96             
1 48934U 21059BH  22276.08731742  .00065387  00000+0  22731-2 0  9991
2 48934  97.5552  48.5114 0012527  82.0560 278.2101 15.29410497 70486
SPACEBEE-88             
1 48935U 21059BJ  22275.93107377  .00078301  00000+0  25085-2 0  9991
2 48935  97.5522  48.8066 0011503  80.5731 279.6810 15.32006097 70493
SPACEBEE-99             
1 48936U 21059BK  22275.83424120  .00052387  00000+0  18758-2 0  9994
2 48936  97.5559  48.1022 0012965  84.2067 276.0650 15.28503129 70435
SPACEBEE-94             
1 48937U 21059BL  22276.10322471  .00078809  00000+0  26929-2 0  9998
2 48937  97.5539  48.6126 0012400  81.9424 278.3222 15.29909361 70494
SHANNON                 
1 48938U 21059BM  22275.94343406  .00009589  00000+0  48530-3 0  9993
2 48938  97.5691  45.9243 0017329  91.3761 268.9458 15.17096461 70275
